{"fetched_at":"2026-07-19T07:04:49.137Z","source":"https://celestrak.org/NORAD/elements/gp.php?GROUP=oneweb&FORMAT=JSON","constellation":"oneweb","records":[{"OBJECT_NAME":"ONEWEB-0701","OBJECT_ID":"2024-188P","EPOCH":"2026-07-18T05:38:29.386176","CLASSIFICATION_TYPE":"U","MEAN_MOTION":13.10369759,"ECCENTRICITY":0.00025977,"INCLINATION":87.8817,"RA_OF_ASC_NODE":30.0782,"ARG_OF_PERICENTER":97.3041,"MEAN_ANOMALY":262.8381,"EPHEMERIS_TYPE":0,"NORAD_CAT_ID":61607,"ELEMENT_SET_NO":999,"REV_AT_EPOCH":8737,"BSTAR":-0.00040002533,"MEAN_MOTION_DOT":-0.00000127,"MEAN_MOTION_DDOT":0},{"OBJECT_NAME":"ONEWEB-0702","OBJECT_ID":"2024-188Q","EPOCH":"2026-07-18T10:53:29.290272","CLASSIFICATION_TYPE":"U","MEAN_MOTION":13.11418763,"ECCENTRICITY":0.00028868,"INCLINATION":87.8906,"RA_OF_ASC_NODE":14.7655,"ARG_OF_PERICENTER":90.9531,"MEAN_ANOMALY":269.1928,"EPHEMERIS_TYPE":0,"NORAD_CAT_ID":61608,"ELEMENT_SET_NO":999,"REV_AT_EPOCH":8858,"BSTAR":-0.00041890216,"MEAN_MOTION_DOT":-0.00000136,"MEAN_MOTION_DDOT":0},{"OBJECT_NAME":"ONEWEB-0704","OBJECT_ID":"2024-188R","EPOCH":"2026-07-18T12:41:12.662592","CLASSIFICATION_TYPE":"U","MEAN_MOTION":13.1036976,"ECCENTRICITY":0.00028677,"INCLINATION":87.8822,"RA_OF_ASC_NODE":30.0101,"ARG_OF_PERICENTER":86.9662,"MEAN_ANOMALY":273.1794,"EPHEMERIS_TYPE":0,"NORAD_CAT_ID":61609,"ELEMENT_SET_NO":999,"REV_AT_EPOCH":8739,"BSTAR":0.0013325702,"MEAN_MOTION_DOT":0.00000478,"MEAN_MOTION_DDOT":0},{"OBJECT_NAME":"ONEWEB-0705","OBJECT_ID":"2024-188S","EPOCH":"2026-07-18T18:18:24.626592","CLASSIFICATION_TYPE":"U","MEAN_MOTION":13.10370484,"ECCENTRICITY":0.0002601,"INCLINATION":87.8822,"RA_OF_ASC_NODE":29.9694,"ARG_OF_PERICENTER":71.3217,"MEAN_ANOMALY":288.8193,"EPHEMERIS_TYPE":0,"NORAD_CAT_ID":61610,"ELEMENT_SET_NO":999,"REV_AT_EPOCH":7959,"BSTAR":0.0011596,"MEAN_MOTION_DOT":0.00000417,"MEAN_MOTION_DDOT":0},{"OBJECT_NAME":"ONEWEB-0706","OBJECT_ID":"2024-188T","EPOCH":"2026-07-18T19:46:22.703232","CLASSIFICATION_TYPE":"U","MEAN_MOTION":13.10373601,"ECCENTRICITY":0.0002435,"INCLINATION":87.882,"RA_OF_ASC_NODE":29.9606,"ARG_OF_PERICENTER":84.0971,"MEAN_ANOMALY":276.0434,"EPHEMERIS_TYPE":0,"NORAD_CAT_ID":61611,"ELEMENT_SET_NO":999,"REV_AT_EPOCH":8752,"BSTAR":0.0019236,"MEAN_MOTION_DOT":0.00000684,"MEAN_MOTION_DDOT":0},{"OBJECT_NAME":"ONEWEB-0707","OBJECT_ID":"2024-188U","EPOCH":"2026-07-18T19:56:08.400192","CLASSIFICATION_TYPE":"U","MEAN_MOTION":13.10370429,"ECCENTRICITY":0.0002418,"INCLINATION":87.8824,"RA_OF_ASC_NODE":29.9548,"ARG_OF_PERICENTER":85.3839,"MEAN_ANOMALY":274.7564,"EPHEMERIS_TYPE":0,"NORAD_CAT_ID":61612,"ELEMENT_SET_NO":999,"REV_AT_EPOCH":8746,"BSTAR":0.0016756,"MEAN_MOTION_DOT":0.00000598,"MEAN_MOTION_DDOT":0},{"OBJECT_NAME":"ONEWEB-0708","OBJECT_ID":"2024-188V","EPOCH":"2026-07-18T11:13:13.412640","CLASSIFICATION_TYPE":"U","MEAN_MOTION":13.1036863,"ECCENTRICITY":0.00019474,"INCLINATION":87.8813,"RA_OF_ASC_NODE":30.0428,"ARG_OF_PERICENTER":70.7239,"MEAN_ANOMALY":289.4098,"EPHEMERIS_TYPE":0,"NORAD_CAT_ID":61613,"ELEMENT_SET_NO":999,"REV_AT_EPOCH":8739,"BSTAR":-0.00089738204,"MEAN_MOTION_DOT":-0.00000301,"MEAN_MOTION_DDOT":0}]}
